[{"OBJECT_NAME":"STARLINK-6148","OBJECT_ID":"2023-090S","EPOCH":"2026-03-08T22:49:13.267200","MEAN_MOTION":15.02536615,"ECCENTRICITY":0.00010219,"INCLINATION":43.0021,"RA_OF_ASC_NODE":278.5429,"ARG_OF_PERICENTER":267.2362,"MEAN_ANOMALY":92.8363,"EPHEMERIS_TYPE":0,"CLASSIFICATION_TYPE":"U","NORAD_CAT_ID":57117,"ELEMENT_SET_NO":999,"REV_AT_EPOCH":15029,"BSTAR":2.8571635e-5,"MEAN_MOTION_DOT":1.82e-6,"MEAN_MOTION_DDOT":0},{"OBJECT_NAME":"SL-19 R\/B","OBJECT_ID":"2006-031B","EPOCH":"2026-03-09T21:44:36.709152","MEAN_MOTION":15.04470441,"ECCENTRICITY":0.01076308,"INCLINATION":98.2744,"RA_OF_ASC_NODE":54.8592,"ARG_OF_PERICENTER":119.9659,"MEAN_ANOMALY":241.2302,"EPHEMERIS_TYPE":0,"CLASSIFICATION_TYPE":"U","NORAD_CAT_ID":29269,"ELEMENT_SET_NO":999,"REV_AT_EPOCH":6907,"BSTAR":0.00022954365,"MEAN_MOTION_DOT":3.574e-5,"MEAN_MOTION_DDOT":0}]
